OBJECT_NAME,OBJECT_ID,EPOCH,MEAN_MOTION,ECCENTRICITY,INCLINATION,RA_OF_ASC_NODE,ARG_OF_PERICENTER,MEAN_ANOMALY,EPHEMERIS_TYPE,CLASSIFICATION_TYPE,NORAD_CAT_ID,ELEMENT_SET_NO,REV_AT_EPOCH,BSTAR,MEAN_MOTION_DOT,MEAN_MOTION_DDOT
ONEWEB-0236,2021-045AG,2026-06-27T17:56:50.821152,13.15548594,.00021562,87.8997,257.1024,99.0728,261.0646,0,U,48797,999,24564,.23957358E-3,.103E-5,0
ONEWEB-0248,2021-045AH,2026-06-27T21:54:08.406720,13.15548593,.0002084,87.9006,257.0542,114.0565,246.0784,0,U,48798,999,24582,.16720044E-3,.76E-6,0
ONEWEB-0225,2021-045AJ,2026-06-27T22:26:04.854624,13.15549257,.00017748,87.9003,257.0577,115.5141,244.6173,0,U,48799,999,24583,-.32560702E-3,-.11E-5,0
ONEWEB-0215,2021-045AK,2026-06-27T18:03:41.076000,13.15547383,.00018563,87.9008,257.0769,120.0659,240.0656,0,U,48800,999,24568,.77993268E-4,.42E-6,0
ONEWEB-0216,2021-045AL,2026-06-27T21:56:25.209888,13.15549650,.00019685,87.9008,257.0592,97.8961,262.2393,0,U,48801,999,24571,.11420562E-3,.56E-6,0
ONEWEB-0239,2021-045AM,2026-06-27T22:03:15.742944,13.15548899,.00021228,87.8998,257.0637,122.4359,237.6977,0,U,48802,999,24575,-.19881273E-3,-.62E-6,0
ONEWEB-0249,2021-060A,2026-06-27T20:16:00.496416,13.16595439,.00021302,87.9089,226.6617,99.2702,260.8670,0,U,48967,999,24101,-.25986175E-3,-.86E-6,0
ONEWEB-0250,2021-060B,2026-06-27T20:57:08.981568,13.25834963,.00030682,87.9090,224.3776,103.6109,256.5369,0,U,48968,999,24163,.18341162E-3,.94E-6,0
ONEWEB-0252,2021-060D,2026-06-27T21:00:29.389824,13.16593653,.00018213,87.9088,226.6479,93.5343,266.5997,0,U,48970,999,24106,.6757893E-4,.39E-6,0
ONEWEB-0253,2021-060E,2026-06-27T20:44:31.886016,13.16594208,.0002169,87.9087,226.6555,98.8986,261.2390,0,U,48971,999,24099,-.35641763E-4,-.1E-7,0
ONEWEB-0254,2021-060F,2026-06-27T20:58:12.186624,13.16594342,.00020725,87.9089,226.6513,105.5144,254.6216,0,U,48972,999,24099,-.96441384E-4,-.24E-6,0
ONEWEB-0255,2021-060G,2026-06-27T20:03:29.009088,13.16595221,.00020118,87.9092,226.6653,101.5826,258.5531,0,U,48973,999,24106,.1035178E-3,.52E-6,0
ONEWEB-0256,2021-060H,2026-06-27T20:41:06.387936,13.16593984,.00020555,87.9083,226.6638,93.1371,266.9995,0,U,48974,999,24103,-.23374643E-4,.4E-7,0
ONEWEB-0257,2021-060J,2026-06-27T21:27:50.116320,13.16595087,.00019227,87.9087,226.6450,98.5418,261.5931,0,U,48975,999,24099,.26654029E-3,.115E-5,0
ONEWEB-0258,2021-060K,2026-06-27T16:01:48.827136,13.16595032,.00021141,87.9091,226.7020,97.9241,262.2130,0,U,48976,999,24097,.10169884E-3,.52E-6,0
ONEWEB-0259,2021-060L,2026-06-27T15:52:41.503872,13.16595833,.00021195,87.9088,226.7022,101.0054,259.1315,0,U,48977,999,24100,.29167704E-3,.124E-5,0
ONEWEB-0260,2021-060M,2026-06-27T21:08:27.463488,13.16594412,.00017964,87.9082,226.6599,87.5164,272.6173,0,U,48978,999,24101,.17557586E-3,.8E-6,0
ONEWEB-0261,2021-060N,2026-06-27T20:25:08.263776,13.16592661,.00018229,87.9086,226.6661,102.4587,257.6748,0,U,48979,999,24106,-.15717428E-3,-.47E-6,0
ONEWEB-0262,2021-060P,2026-06-27T19:56:38.450112,13.16595499,.00022365,87.9093,226.6562,102.5810,257.5571,0,U,48980,999,24102,.20606078E-4,.21E-6,0
ONEWEB-0263,2021-060Q,2026-06-27T20:42:14.148000,13.16595585,.00019801,87.9089,226.6618,105.4427,254.6922,0,U,48981,999,24099,-.50323778E-3,-.18E-5,0
ONEWEB-0264,2021-060R,2026-06-27T16:07:30.419904,13.16596046,.00018282,87.9089,226.7025,96.0572,264.0767,0,U,48982,999,24097,.16717913E-3,.77E-6,0
ONEWEB-0266,2021-060T,2026-06-27T20:17:10.151232,13.16594222,.00021656,87.9092,226.6587,95.3757,264.7621,0,U,48984,999,24098,-.14882076E-3,-.44E-6,0
ONEWEB-0267,2021-060U,2026-06-27T15:04:48.913824,13.16595169,.00018857,87.9091,226.6985,99.6054,260.5290,0,U,48985,999,24096,-.39147567E-3,-.137E-5,0
ONEWEB-0268,2021-060V,2026-06-27T19:47:30.678432,13.16592048,.00020149,87.9092,226.6691,92.5688,267.5674,0,U,48986,999,24125,-.15131922E-4,.7E-7,0
ONEWEB-0269,2021-060W,2026-06-27T21:09:35.810208,13.16595468,.00020575,87.9079,226.6594,90.7028,269.4338,0,U,48987,999,24103,.34140077E-3,.143E-5,0
ONEWEB-0270,2021-060X,2026-06-27T19:45:14.702112,13.16595506,.00020575,87.9091,226.6713,107.0489,253.0868,0,U,48988,999,24106,.14704974E-3,.69E-6,0
ONEWEB-0271,2021-060Y,2026-06-27T21:16:26.496192,13.16595483,.00019032,87.9087,226.6483,102.8214,257.3130,0,U,48989,999,24107,.35897821E-3,.15E-5,0
ONEWEB-0272,2021-060Z,2026-06-27T19:58:56.097408,13.16594248,.00017882,87.9083,226.6706,93.2860,266.8476,0,U,48990,999,24101,-.46748622E-3,-.166E-5,0
ONEWEB-0273,2021-060AA,2026-06-27T20:30:50.324832,13.16595070,.00020482,87.9092,226.6659,100.2951,259.8411,0,U,48991,999,24099,-.17845779E-3,-.55E-6,0
ONEWEB-0274,2021-060AB,2026-06-27T21:07:19.182432,13.16594202,.00018062,87.9079,226.6622,90.8263,269.3075,0,U,48992,999,24103,.15113424E-3,.71E-6,0
