ONEWEB-0236             
1 48797U 21045AG  26178.74781043  .00000103  00000+0  23957-3 0  9997
2 48797  87.8997 257.1024 0002156  99.0728 261.0646 13.15548594245646
ONEWEB-0248             
1 48798U 21045AH  26178.91259730  .00000076  00000+0  16720-3 0  9999
2 48798  87.9006 257.0542 0002084 114.0565 246.0784 13.15548593245825
ONEWEB-0225             
1 48799U 21045AJ  26178.93477841 -.00000110  00000+0 -32561-3 0  9999
2 48799  87.9003 257.0577 0001774 115.5141 244.6173 13.15549257245837
ONEWEB-0215             
1 48800U 21045AK  26178.75255875  .00000042  00000+0  77993-4 0  9994
2 48800  87.9008 257.0769 0001856 120.0659 240.0656 13.15547383245681
ONEWEB-0216             
1 48801U 21045AL  26178.91418067  .00000056  00000+0  11421-3 0  9995
2 48801  87.9008 257.0592 0001968  97.8961 262.2393 13.15549650245714
ONEWEB-0239             
1 48802U 21045AM  26178.91893221 -.00000062  00000+0 -19881-3 0  9992
2 48802  87.8998 257.0637 0002122 122.4359 237.6977 13.15548899245753
ONEWEB-0249             
1 48967U 21060A   26178.84445019 -.00000086  00000+0 -25986-3 0  9990
2 48967  87.9089 226.6617 0002130  99.2702 260.8670 13.16595439241015
ONEWEB-0250             
1 48968U 21060B   26178.87302062  .00000094  00000+0  18341-3 0  9998
2 48968  87.9090 224.3776 0003068 103.6109 256.5369 13.25834963241634
ONEWEB-0252             
1 48970U 21060D   26178.87534016  .00000039  00000+0  67579-4 0  9994
2 48970  87.9088 226.6479 0001821  93.5343 266.5997 13.16593653241064
ONEWEB-0253             
1 48971U 21060E   26178.86425794 -.00000001  00000+0 -35642-4 0  9993
2 48971  87.9087 226.6555 0002169  98.8986 261.2390 13.16594208240993
ONEWEB-0254             
1 48972U 21060F   26178.87375216 -.00000024  00000+0 -96441-4 0  9997
2 48972  87.9089 226.6513 0002072 105.5144 254.6216 13.16594342240997
ONEWEB-0255             
1 48973U 21060G   26178.83575242  .00000052  00000+0  10352-3 0  9990
2 48973  87.9092 226.6653 0002011 101.5826 258.5531 13.16595221241062
ONEWEB-0256             
1 48974U 21060H   26178.86187949  .00000004  00000+0 -23375-4 0  9995
2 48974  87.9083 226.6638 0002055  93.1371 266.9995 13.16593984241033
ONEWEB-0257             
1 48975U 21060J   26178.89433005  .00000115  00000+0  26654-3 0  9990
2 48975  87.9087 226.6450 0001922  98.5418 261.5931 13.16595087240994
ONEWEB-0258             
1 48976U 21060K   26178.66792624  .00000052  00000+0  10170-3 0  9997
2 48976  87.9091 226.7020 0002114  97.9241 262.2130 13.16595032240972
ONEWEB-0259             
1 48977U 21060L   26178.66159148  .00000124  00000+0  29168-3 0  9993
2 48977  87.9088 226.7022 0002119 101.0054 259.1315 13.16595833241009
ONEWEB-0260             
1 48978U 21060M   26178.88087342  .00000080  00000+0  17558-3 0  9995
2 48978  87.9082 226.6599 0001796  87.5164 272.6173 13.16594412241017
ONEWEB-0261             
1 48979U 21060N   26178.85079009 -.00000047  00000+0 -15717-3 0  9994
2 48979  87.9086 226.6661 0001822 102.4587 257.6748 13.16592661241068
ONEWEB-0262             
1 48980U 21060P   26178.83100058  .00000021  00000+0  20606-4 0  9997
2 48980  87.9093 226.6562 0002236 102.5810 257.5571 13.16595499241029
ONEWEB-0263             
1 48981U 21060Q   26178.86266375 -.00000180  00000+0 -50324-3 0  9993
2 48981  87.9089 226.6618 0001980 105.4427 254.6922 13.16595585240997
ONEWEB-0264             
1 48982U 21060R   26178.67187986  .00000077  00000+0  16718-3 0  9995
2 48982  87.9089 226.7025 0001828  96.0572 264.0767 13.16596046240971
ONEWEB-0266             
1 48984U 21060T   26178.84525638 -.00000044  00000+0 -14882-3 0  9992
2 48984  87.9092 226.6587 0002165  95.3757 264.7621 13.16594222240982
ONEWEB-0267             
1 48985U 21060U   26178.62834391 -.00000137  00000+0 -39148-3 0  9993
2 48985  87.9091 226.6985 0001885  99.6054 260.5290 13.16595169240964
ONEWEB-0268             
1 48986U 21060V   26178.82466063  .00000007  00000+0 -15132-4 0  9996
2 48986  87.9092 226.6691 0002014  92.5688 267.5674 13.16592048241259
ONEWEB-0269             
1 48987U 21060W   26178.88166447  .00000143  00000+0  34140-3 0  9995
2 48987  87.9079 226.6594 0002057  90.7028 269.4338 13.16595468241035
ONEWEB-0270             
1 48988U 21060X   26178.82308683  .00000069  00000+0  14705-3 0  9992
2 48988  87.9091 226.6713 0002057 107.0489 253.0868 13.16595506241069
ONEWEB-0271             
1 48989U 21060Y   26178.88641778  .00000150  00000+0  35898-3 0  9991
2 48989  87.9087 226.6483 0001903 102.8214 257.3130 13.16595483241071
ONEWEB-0272             
1 48990U 21060Z   26178.83259372 -.00000166  00000+0 -46749-3 0  9999
2 48990  87.9083 226.6706 0001788  93.2860 266.8476 13.16594248241018
ONEWEB-0273             
1 48991U 21060AA  26178.85474913 -.00000055  00000+0 -17846-3 0  9995
2 48991  87.9092 226.6659 0002048 100.2951 259.8411 13.16595070240997
ONEWEB-0274             
1 48992U 21060AB  26178.88008313  .00000071  00000+0  15113-3 0  9997
2 48992  87.9079 226.6622 0001806  90.8263 269.3075 13.16594202241038
